start=new Date('2021-12-22T00:00:00.000Z').valueOf();
sats=[{"COUNTRY_CODE":"US","CLASSIFICATION_TYPE":"U","FILE":"3246784","SEMIMAJOR_AXIS":"6925.335","ECCENTRICITY":"0.00023470","EPHEMERIS_TYPE":"0","ELEMENT_SET_NO":"999","NORAD_CAT_ID":"47651","PERIAPSIS":"545.575","OBJECT_ID":"2021-012AH","MEAN_MOTION":"15.06404282","ARG_OF_PERICENTER":"98.8793","GP_ID":"192178314","MEAN_ELEMENT_THEORY":"SGP4","EPOCH":"2021-12-21T20:58:02.854560","TLE_LINE2":"2 47651  53.0543 139.6387 0002347  98.8793 261.2462 15.06404282 48054","SITE":"AFETR","MEAN_ANOMALY":"261.2462","DECAY_DATE":null,"OBJECT_NAME":"STARLINK-2035","REV_AT_EPOCH":"4805","MEAN_MOTION_DDOT":"0.0000000000000","PERIOD":"95.592","TLE_LINE1":"1 47651U 21012AH  21355.87364415 -.00001350  00000-0 -71698-4 0  9999","OBJECT_TYPE":"PAYLOAD","REF_FRAME":"TEME","TIME_SYSTEM":"UTC","LAUNCH_DATE":"2021-02-16","BSTAR":"-0.00007169800000","INCLINATION":"53.0543","RA_OF_ASC_NODE":"139.6387","CENTER_NAME":"EARTH","RCS_SIZE":"LARGE","MEAN_MOTION_DOT":"-0.00001350","APOAPSIS":"548.826"},{"MEAN_MOTION_DOT":"0.00000975","APOAPSIS":"548.620","RA_OF_ASC_NODE":"139.8113","CENTER_NAME":"EARTH","RCS_SIZE":"LARGE","TIME_SYSTEM":"UTC","LAUNCH_DATE":"2021-02-16","BSTAR":"0.00008433200000","INCLINATION":"53.0542","OBJECT_TYPE":"PAYLOAD","REF_FRAME":"TEME","MEAN_MOTION_DDOT":"0.0000000000000","PERIOD":"95.592","TLE_LINE1":"1 47652U 21012AJ  21355.83403645  .00000975  00000-0  84332-4 0  9994","OBJECT_NAME":"STARLINK-2036","REV_AT_EPOCH":"4804","DECAY_DATE":null,"SITE":"AFETR","TLE_LINE2":"2 47652  53.0542 139.8113 0002055  92.5619 267.5605 15.06405533 48044","MEAN_ANOMALY":"267.5605","ARG_OF_PERICENTER":"92.5619","GP_ID":"192179063","EPOCH":"2021-12-21T20:01:00.749280","MEAN_ELEMENT_THEORY":"SGP4","NORAD_CAT_ID":"47652","PERIAPSIS":"545.773","OBJECT_ID":"2021-012AJ","MEAN_MOTION":"15.06405533","EPHEMERIS_TYPE":"0","ELEMENT_SET_NO":"999","ECCENTRICITY":"0.00020550","CLASSIFICATION_TYPE":"U","FILE":"3246784","SEMIMAJOR_AXIS":"6925.332","COUNTRY_CODE":"US"},{"RCS_SIZE":"LARGE","RA_OF_ASC_NODE":"119.8266","CENTER_NAME":"EARTH","APOAPSIS":"548.063","MEAN_MOTION_DOT":"0.00002156","BSTAR":"0.00016357000000","INCLINATION":"53.0535","TIME_SYSTEM":"UTC","LAUNCH_DATE":"2021-02-16","TLE_LINE1":"1 47653U 21012AK  21355.82850093  .00002156  00000-0  16357-3 0  9991","MEAN_MOTION_DDOT":"0.0000000000000","PERIOD":"95.592","OBJECT_TYPE":"PAYLOAD","REF_FRAME":"TEME","DECAY_DATE":null,"OBJECT_NAME":"STARLINK-2037","REV_AT_EPOCH":"4831","MEAN_ELEMENT_THEORY":"SGP4","EPOCH":"2021-12-21T19:53:02.480352","ARG_OF_PERICENTER":"91.2198","GP_ID":"192179316","MEAN_ANOMALY":"268.8934","SITE":"AFETR","TLE_LINE2":"2 47653  53.0535 119.8266 0001251  91.2198 268.8934 15.06405359 48314","ELEMENT_SET_NO":"999","EPHEMERIS_TYPE":"0","OBJECT_ID":"2021-012AK","MEAN_MOTION":"15.06405359","NORAD_CAT_ID":"47653","PERIAPSIS":"546.331","FILE":"3246784","SEMIMAJOR_AXIS":"6925.332","CLASSIFICATION_TYPE":"U","ECCENTRICITY":"0.00012510","COUNTRY_CODE":"US"},{"OBJECT_NAME":"STARLINK-2038","REV_AT_EPOCH":"4804","DECAY_DATE":null,"OBJECT_TYPE":"PAYLOAD","REF_FRAME":"TEME","TLE_LINE1":"1 47654U 21012AL  21355.83772230  .00002299  00000-0  17317-3 0  9994","MEAN_MOTION_DDOT":"0.0000000000000","PERIOD":"95.592","BSTAR":"0.00017317000000","INCLINATION":"53.0538","TIME_SYSTEM":"UTC","LAUNCH_DATE":"2021-02-16","APOAPSIS":"548.816","MEAN_MOTION_DOT":"0.00002299","RCS_SIZE":"LARGE","RA_OF_ASC_NODE":"139.7834","CENTER_NAME":"EARTH","COUNTRY_CODE":"US","ECCENTRICITY":"0.00023510","FILE":"3246784","SEMIMAJOR_AXIS":"6925.323","CLASSIFICATION_TYPE":"U","OBJECT_ID":"2021-012AL","MEAN_MOTION":"15.06408405","NORAD_CAT_ID":"47654","PERIAPSIS":"545.560","ELEMENT_SET_NO":"999","EPHEMERIS_TYPE":"0","MEAN_ANOMALY":"263.0478","TLE_LINE2":"2 47654  53.0538 139.7834 0002351  97.0778 263.0478 15.06408405 48045","SITE":"AFETR","EPOCH":"2021-12-21T20:06:19.206720","MEAN_ELEMENT_THEORY":"SGP4","ARG_OF_PERICENTER":"97.0778","GP_ID":"192177565"},{"INCLINATION":"53.0538","BSTAR":"0.00003448700000","LAUNCH_DATE":"2021-02-16","TIME_SYSTEM":"UTC","RCS_SIZE":"LARGE","CENTER_NAME":"EARTH","RA_OF_ASC_NODE":"139.8237","APOAPSIS":"548.716","MEAN_MOTION_DOT":"0.00000232","DECAY_DATE":null,"REV_AT_EPOCH":"4804","OBJECT_NAME":"STARLINK-2039","TLE_LINE1":"1 47655U 21012AM  21355.83036072  .00000232  00000-0  34487-4 0  9995","PERIOD":"95.591","MEAN_MOTION_DDOT":"0.0000000000000","REF_FRAME":"TEME","OBJECT_TYPE":"PAYLOAD","ELEMENT_SET_NO":"999","EPHEMERIS_TYPE":"0","MEAN_MOTION":"15.06414488","OBJECT_ID":"2021-012AM","PERIAPSIS":"545.623","NORAD_CAT_ID":"47655","MEAN_ELEMENT_THEORY":"SGP4","EPOCH":"2021-12-21T19:55:43.166208","GP_ID":"192177815","ARG_OF_PERICENTER":"93.4219","MEAN_ANOMALY":"266.7025","TLE_LINE2":"2 47655  53.0538 139.8237 0002233  93.4219 266.7025 15.06414488 48049","SITE":"AFETR","COUNTRY_CODE":"US","SEMIMAJOR_AXIS":"6925.304","FILE":"3246784","CLASSIFICATION_TYPE":"U","ECCENTRICITY":"0.00022330"},{"EPHEMERIS_TYPE":"0","ELEMENT_SET_NO":"999","NORAD_CAT_ID":"47656","PERIAPSIS":"546.253","OBJECT_ID":"2021-012AN","MEAN_MOTION":"15.06399008","ARG_OF_PERICENTER":"86.3763","GP_ID":"192178564","MEAN_ELEMENT_THEORY":"SGP4","EPOCH":"2021-12-21T20:19:34.859136","SITE":"AFETR","TLE_LINE2":"2 47656  53.0546 119.7453 0001391  86.3763 273.7385 15.06399008 48323","MEAN_ANOMALY":"273.7385","COUNTRY_CODE":"US","CLASSIFICATION_TYPE":"U","FILE":"3246784","SEMIMAJOR_AXIS":"6925.352","ECCENTRICITY":"0.00013910","TIME_SYSTEM":"UTC","LAUNCH_DATE":"2021-02-16","BSTAR":"-0.00003797900000","INCLINATION":"53.0546","RA_OF_ASC_NODE":"119.7453","CENTER_NAME":"EARTH","RCS_SIZE":"LARGE","MEAN_MOTION_DOT":"-0.00000847","APOAPSIS":"548.180","DECAY_DATE":null,"OBJECT_NAME":"STARLINK-2040","REV_AT_EPOCH":"4832","MEAN_MOTION_DDOT":"0.0000000000000","PERIOD":"95.592","TLE_LINE1":"1 47656U 21012AN  21355.84693124 -.00000847  00000-0 -37979-4 0  9997","OBJECT_TYPE":"PAYLOAD","REF_FRAME":"TEME"},{"OBJECT_TYPE":"PAYLOAD","REF_FRAME":"TEME","MEAN_MOTION_DDOT":"0.0000000000000","PERIOD":"95.592","TLE_LINE1":"1 47657U 21012AP  21355.85246876 -.00001620  00000-0 -89824-4 0  9993","OBJECT_NAME":"STARLINK-2041","REV_AT_EPOCH":"4804","DECAY_DATE":null,"MEAN_MOTION_DOT":"-0.00001620","APOAPSIS":"548.399","RA_OF_ASC_NODE":"139.7341","CENTER_NAME":"EARTH","RCS_SIZE":"LARGE","TIME_SYSTEM":"UTC","LAUNCH_DATE":"2021-02-16","BSTAR":"-0.00008982400000","INCLINATION":"53.0542","ECCENTRICITY":"0.00017430","CLASSIFICATION_TYPE":"U","FILE":"3246784","SEMIMAJOR_AXIS":"6925.326","COUNTRY_CODE":"US","SITE":"AFETR","TLE_LINE2":"2 47657  53.0542 139.7341 0001743  95.5496 264.5692 15.06407213 48040","MEAN_ANOMALY":"264.5692","ARG_OF_PERICENTER":"95.5496","GP_ID":"192178817","EPOCH":"2021-12-21T20:27:33.300864","MEAN_ELEMENT_THEORY":"SGP4","NORAD_CAT_ID":"47657","PERIAPSIS":"545.984","OBJECT_ID":"2021-012AP","MEAN_MOTION":"15.06407213","EPHEMERIS_TYPE":"0","ELEMENT_SET_NO":"999"},{"CLASSIFICATION_TYPE":"U","FILE":"3246784","SEMIMAJOR_AXIS":"6925.351","ECCENTRICITY":"0.00020400","COUNTRY_CODE":"US","ARG_OF_PERICENTER":"90.9019","GP_ID":"192178065","EPOCH":"2021-12-21T20:16:56.631360","MEAN_ELEMENT_THEORY":"SGP4","SITE":"AFETR","TLE_LINE2":"2 47658  53.0533 139.7630 0002040  90.9019 269.2203 15.06399124 48066","MEAN_ANOMALY":"269.2203","EPHEMERIS_TYPE":"0","ELEMENT_SET_NO":"999","NORAD_CAT_ID":"47658","PERIAPSIS":"545.803","OBJECT_ID":"2021-012AQ","MEAN_MOTION":"15.06399124","MEAN_MOTION_DDOT":"0.0000000000000","PERIOD":"95.592","TLE_LINE1":"1 47658U 21012AQ  21355.84509990 -.00001470  00000-0 -79783-4 0  9998","OBJECT_TYPE":"PAYLOAD","REF_FRAME":"TEME","DECAY_DATE":null,"OBJECT_NAME":"STARLINK-2042","REV_AT_EPOCH":"4806","RA_OF_ASC_NODE":"139.7630","CENTER_NAME":"EARTH","RCS_SIZE":"LARGE","MEAN_MOTION_DOT":"-0.00001470","APOAPSIS":"548.629","TIME_SYSTEM":"UTC","LAUNCH_DATE":"2021-02-16","BSTAR":"-0.00007978300000","INCLINATION":"53.0533"},{"INCLINATION":"53.0516","BSTAR":"0.00173430000000","LAUNCH_DATE":"2021-02-16","TIME_SYSTEM":"UTC","RCS_SIZE":"LARGE","CENTER_NAME":"EARTH","RA_OF_ASC_NODE":"19.4296","APOAPSIS":"548.547","MEAN_MOTION_DOT":"0.00025618","DECAY_DATE":null,"REV_AT_EPOCH":"360","OBJECT_NAME":"STARLINK-2043","TLE_LINE1":"1 47659U 21012AR  21355.91667824  .00025618  00000-0  17343-2 0  9998","PERIOD":"95.595","MEAN_MOTION_DDOT":"0.0000000000000","REF_FRAME":"TEME","OBJECT_TYPE":"PAYLOAD","ELEMENT_SET_NO":"999","EPHEMERIS_TYPE":"0","MEAN_MOTION":"15.06360679","OBJECT_ID":"2021-012AR","PERIAPSIS":"546.121","NORAD_CAT_ID":"47659","EPOCH":"2021-12-21T22:00:00.999936","MEAN_ELEMENT_THEORY":"SGP4","GP_ID":"192178315","ARG_OF_PERICENTER":"45.3750","MEAN_ANOMALY":"203.1887","SITE":"AFETR","TLE_LINE2":"2 47659  53.0516  19.4296 0001752  45.3750 203.1887 15.06360679  3604","COUNTRY_CODE":"US","SEMIMAJOR_AXIS":"6925.469","FILE":"3246784","CLASSIFICATION_TYPE":"U","ECCENTRICITY":"0.00017520"},{"CLASSIFICATION_TYPE":"U","SEMIMAJOR_AXIS":"6843.395","FILE":"3246784","ECCENTRICITY":"0.00018010","COUNTRY_CODE":"US","GP_ID":"192179064","ARG_OF_PERICENTER":"39.8802","EPOCH":"2021-12-21T22:00:00.999936","MEAN_ELEMENT_THEORY":"SGP4","TLE_LINE2":"2 47660  53.0543  11.4059 0001801  39.8802 128.8013 15.33540725  3668","SITE":"AFETR","MEAN_ANOMALY":"128.8013","EPHEMERIS_TYPE":"0","ELEMENT_SET_NO":"999","PERIAPSIS":"464.028","NORAD_CAT_ID":"47660","MEAN_MOTION":"15.33540725","OBJECT_ID":"2021-012AS","PERIOD":"93.900","MEAN_MOTION_DDOT":"0.0000000000000","TLE_LINE1":"1 47660U 21012AS  21355.91667824 -.00616646  00000-0 -20079-1 0  9998","REF_FRAME":"TEME","OBJECT_TYPE":"PAYLOAD","DECAY_DATE":null,"REV_AT_EPOCH":"366","OBJECT_NAME":"STARLINK-2044","CENTER_NAME":"EARTH","RA_OF_ASC_NODE":"11.4059","RCS_SIZE":"LARGE","MEAN_MOTION_DOT":"-0.00616646","APOAPSIS":"466.493","LAUNCH_DATE":"2021-02-16","TIME_SYSTEM":"UTC","INCLINATION":"53.0543","BSTAR":"-0.02007900000000"}];
